NOAA 15                 
1 25338U 98030A   20046.07894157 -.00000004  00000-0  16920-4 0  9991
2 25338  98.7298  71.6799 0009409 260.2865  99.7252 14.25951091131642
NOAA 18                 
1 28654U 05018A   20046.12172791  .00000045  00000-0  49045-4 0  9996
2 28654  99.0627 101.2970 0013867 215.2321 144.7935 14.12488660759599
METOP-A                 
1 29499U 06044A   20046.11435222 -.00000021  00000-0  97079-5 0  9990
2 29499  98.5417  97.0199 0000626 114.6320 299.3326 14.21490607691368
NOAA 19                 
1 33591U 09005A   20046.11725863 -.00000013  00000-0  18075-4 0  9990
2 33591  99.1949  48.2585 0014838  63.5220 296.7471 14.12395527567988
METOP-B                 
1 38771U 12049A   20045.93898149 -.00000023  00000-0  93273-5 0  9999
2 38771  98.7100 107.0284 0001423  53.7943 275.5340 14.21485720384472
SARAL                   
1 39086U 13009A   20046.48339326 -.00000006  00000-0  14067-4 0  9998
2 39086  98.5405 233.9305 0000320 139.4390 220.6817 14.32020083364404
METOP-C                 
1 43689U 18087A   20039.22499351 -.00000044  00000-0  00000+0 0  9991
2 43689  98.7176 100.5988 0002301  37.5968 322.5297 14.21529557 65096
ANGELS                  
1 44876U 19092D   20046.44302405 -.00000066  00000-0  00000+0 0  9996
2 44876  97.4531 231.8646 0013841  80.8635 279.4169 15.16267419  8948
